[
    {
        "OBJECT_NAME": "PROGRESS-MS 32",
        "OBJECT_ID": "2025-204A",
        "EPOCH": "2025-12-06T20:46:13.238400",
        "MEAN_MOTION": 15.49374779,
        "ECCENTRICITY": 0.00034973,
        "INCLINATION": 51.6304,
        "RA_OF_ASC_NODE": 171.5636,
        "ARG_OF_PERICENTER": 213.1314,
        "MEAN_ANOMALY": 146.9456,
        "EPHEMERIS_TYPE": 0,
        "CLASSIFICATION_TYPE": "U",
        "NORAD_CAT_ID": 65586,
        "ELEMENT_SET_NO": 999,
        "REV_AT_EPOCH": 27,
        "BSTAR": 0.00025393652,
        "MEAN_MOTION_DOT": 0.0001375,
        "MEAN_MOTION_DDOT": 0
    },
    {
        "OBJECT_NAME": "CYGNUS NG-23",
        "OBJECT_ID": "2025-208A",
        "EPOCH": "2025-12-06T20:46:13.238400",
        "MEAN_MOTION": 15.49374779,
        "ECCENTRICITY": 0.00034973,
        "INCLINATION": 51.6304,
        "RA_OF_ASC_NODE": 171.5636,
        "ARG_OF_PERICENTER": 213.1314,
        "MEAN_ANOMALY": 146.9456,
        "EPHEMERIS_TYPE": 0,
        "CLASSIFICATION_TYPE": "U",
        "NORAD_CAT_ID": 65616,
        "ELEMENT_SET_NO": 999,
        "REV_AT_EPOCH": 22,
        "BSTAR": 0.00025393652,
        "MEAN_MOTION_DOT": 0.0001375,
        "MEAN_MOTION_DDOT": 0
    },
    {
        "OBJECT_NAME": "DRAGONFLY",
        "OBJECT_ID": "1998-067XH",
        "EPOCH": "2025-12-06T18:11:12.021792",
        "MEAN_MOTION": 15.69539731,
        "ECCENTRICITY": 0.00064636,
        "INCLINATION": 51.6244,
        "RA_OF_ASC_NODE": 166.34,
        "ARG_OF_PERICENTER": 240.1975,
        "MEAN_ANOMALY": 119.838,
        "EPHEMERIS_TYPE": 0,
        "CLASSIFICATION_TYPE": "U",
        "NORAD_CAT_ID": 65729,
        "ELEMENT_SET_NO": 999,
        "REV_AT_EPOCH": 1222,
        "BSTAR": 0.0016006166,
        "MEAN_MOTION_DOT": 0.00197078,
        "MEAN_MOTION_DDOT": 0
    },
    {
        "OBJECT_NAME": "1998-067XK",
        "OBJECT_ID": "1998-067XK",
        "EPOCH": "2025-12-06T19:05:46.784832",
        "MEAN_MOTION": 15.6431708,
        "ECCENTRICITY": 0.00056148,
        "INCLINATION": 51.6275,
        "RA_OF_ASC_NODE": 167.356,
        "ARG_OF_PERICENTER": 209.7044,
        "MEAN_ANOMALY": 150.3633,
        "EPHEMERIS_TYPE": 0,
        "CLASSIFICATION_TYPE": "U",
        "NORAD_CAT_ID": 65731,
        "ELEMENT_SET_NO": 999,
        "REV_AT_EPOCH": 1221,
        "BSTAR": 0.001226721,
        "MEAN_MOTION_DOT": 0.00120927,
        "MEAN_MOTION_DDOT": 0
    },
    {
        "OBJECT_NAME": "RSP-03",
        "OBJECT_ID": "1998-067XL",
        "EPOCH": "2025-12-06T19:27:20.778624",
        "MEAN_MOTION": 15.66782346,
        "ECCENTRICITY": 0.00064361,
        "INCLINATION": 51.6255,
        "RA_OF_ASC_NODE": 166.6987,
        "ARG_OF_PERICENTER": 212.9717,
        "MEAN_ANOMALY": 147.0878,
        "EPHEMERIS_TYPE": 0,
        "CLASSIFICATION_TYPE": "U",
        "NORAD_CAT_ID": 65732,
        "ELEMENT_SET_NO": 999,
        "REV_AT_EPOCH": 1223,
        "BSTAR": 0.0014177456,
        "MEAN_MOTION_DOT": 0.00155052,
        "MEAN_MOTION_DDOT": 0
    },
    {
        "OBJECT_NAME": "GHS-01",
        "OBJECT_ID": "1998-067XM",
        "EPOCH": "2025-12-06T18:47:20.289408",
        "MEAN_MOTION": 15.71874043,
        "ECCENTRICITY": 0.00068988,
        "INCLINATION": 51.6272,
        "RA_OF_ASC_NODE": 165.7632,
        "ARG_OF_PERICENTER": 241.192,
        "MEAN_ANOMALY": 118.8385,
        "EPHEMERIS_TYPE": 0,
        "CLASSIFICATION_TYPE": "U",
        "NORAD_CAT_ID": 65733,
        "ELEMENT_SET_NO": 999,
        "REV_AT_EPOCH": 1224,
        "BSTAR": 0.00174144,
        "MEAN_MOTION_DOT": 0.00237688,
        "MEAN_MOTION_DDOT": 0
    },
    {
        "OBJECT_NAME": "YOTSUBA-KULOVER",
        "OBJECT_ID": "1998-067XN",
        "EPOCH": "2025-12-06T19:33:42.622560",
        "MEAN_MOTION": 15.58441577,
        "ECCENTRICITY": 0.00019681,
        "INCLINATION": 51.6278,
        "RA_OF_ASC_NODE": 169.7328,
        "ARG_OF_PERICENTER": 197.1439,
        "MEAN_ANOMALY": 162.9487,
        "EPHEMERIS_TYPE": 0,
        "CLASSIFICATION_TYPE": "U",
        "NORAD_CAT_ID": 65941,
        "ELEMENT_SET_NO": 999,
        "REV_AT_EPOCH": 893,
        "BSTAR": 0.0011638994,
        "MEAN_MOTION_DOT": 0.00090951,
        "MEAN_MOTION_DDOT": 0
    },
    {
        "OBJECT_NAME": "BOTAN",
        "OBJECT_ID": "1998-067XP",
        "EPOCH": "2025-12-06T18:26:46.199328",
        "MEAN_MOTION": 15.61316825,
        "ECCENTRICITY": 0.00039822,
        "INCLINATION": 51.627,
        "RA_OF_ASC_NODE": 169.4226,
        "ARG_OF_PERICENTER": 191.5132,
        "MEAN_ANOMALY": 168.5771,
        "EPHEMERIS_TYPE": 0,
        "CLASSIFICATION_TYPE": "U",
        "NORAD_CAT_ID": 65942,
        "ELEMENT_SET_NO": 999,
        "REV_AT_EPOCH": 893,
        "BSTAR": 0.001480583,
        "MEAN_MOTION_DOT": 0.00129965,
        "MEAN_MOTION_DDOT": 0
    },
    {
        "OBJECT_NAME": "E-KAGAKU-1",
        "OBJECT_ID": "1998-067XQ",
        "EPOCH": "2025-12-06T18:01:16.505472",
        "MEAN_MOTION": 15.5838918,
        "ECCENTRICITY": 0.00030246,
        "INCLINATION": 51.6289,
        "RA_OF_ASC_NODE": 170.0575,
        "ARG_OF_PERICENTER": 170.5434,
        "MEAN_ANOMALY": 189.5616,
        "EPHEMERIS_TYPE": 0,
        "CLASSIFICATION_TYPE": "U",
        "NORAD_CAT_ID": 65943,
        "ELEMENT_SET_NO": 999,
        "REV_AT_EPOCH": 892,
        "BSTAR": 0.0011230983,
        "MEAN_MOTION_DOT": 0.00087541,
        "MEAN_MOTION_DDOT": 0
    },
    {
        "OBJECT_NAME": "HRC MONOBLOCK CAMERA",
        "OBJECT_ID": "1998-067XR",
        "EPOCH": "2025-12-06T22:15:10.603584",
        "MEAN_MOTION": 15.53573464,
        "ECCENTRICITY": 0.00040212,
        "INCLINATION": 51.6285,
        "RA_OF_ASC_NODE": 170.4765,
        "ARG_OF_PERICENTER": 160.7333,
        "MEAN_ANOMALY": 199.381,
        "EPHEMERIS_TYPE": 0,
        "CLASSIFICATION_TYPE": "U",
        "NORAD_CAT_ID": 66052,
        "ELEMENT_SET_NO": 999,
        "REV_AT_EPOCH": 793,
        "BSTAR": 0.00071615141,
        "MEAN_MOTION_DOT": 0.00046263,
        "MEAN_MOTION_DDOT": 0
    },
    {
        "OBJECT_NAME": "HTV-X1",
        "OBJECT_ID": "2025-241A",
        "EPOCH": "2025-12-06T20:46:13.238400",
        "MEAN_MOTION": 15.49374779,
        "ECCENTRICITY": 0.00034973,
        "INCLINATION": 51.6304,
        "RA_OF_ASC_NODE": 171.5636,
        "ARG_OF_PERICENTER": 213.1314,
        "MEAN_ANOMALY": 146.9456,
        "EPHEMERIS_TYPE": 0,
        "CLASSIFICATION_TYPE": "U",
        "NORAD_CAT_ID": 66174,
        "ELEMENT_SET_NO": 999,
        "REV_AT_EPOCH": 51,
        "BSTAR": 0.00025393652,
        "MEAN_MOTION_DOT": 0.0001375,
        "MEAN_MOTION_DDOT": 0
    },
    {
        "OBJECT_NAME": "SZ-21 MODULE",
        "OBJECT_ID": "2025-246C",
        "EPOCH": "2025-12-06T21:55:46.522560",
        "MEAN_MOTION": 15.62073048,
        "ECCENTRICITY": 0.00061635,
        "INCLINATION": 41.4777,
        "RA_OF_ASC_NODE": 51.5754,
        "ARG_OF_PERICENTER": 227.7607,
        "MEAN_ANOMALY": 132.271,
        "EPHEMERIS_TYPE": 0,
        "CLASSIFICATION_TYPE": "U",
        "NORAD_CAT_ID": 66515,
        "ELEMENT_SET_NO": 999,
        "REV_AT_EPOCH": 353,
        "BSTAR": 0.00038291804,
        "MEAN_MOTION_DOT": 0.00034334,
        "MEAN_MOTION_DDOT": 0
    }
]